{
  "type": "FeatureCollection",
  "features": [
    {
      "type": "Feature",
      "properties": {
        "norad_id": 65729,
        "name": "DRAGONFLY",
        "group": "stations",
        "lat": 14.09139685967514,
        "lon": -176.35767792016736,
        "alt_km": 363.65646087602363,
        "timestamp": "2025-12-05T14:45:14.120738+00:00",
        "meta_object_name": "DRAGONFLY",
        "meta_object_id": "1998-067XH",
        "meta_epoch": "2025-12-04T14:13:07.489056",
        "meta_mean_motion": 15.68739886,
        "meta_eccentricity": 0.0006546,
        "meta_inclination": 51.6239,
        "meta_ra_of_asc_node": 177.3823,
        "meta_arg_of_pericenter": 225.5504,
        "meta_mean_anomaly": 134.4958,
        "meta_ephemeris_type": 0,
        "meta_classification_type": "U",
        "meta_norad_cat_id": 65729,
        "meta_element_set_no": 999,
        "meta_rev_at_epoch": 1188,
        "meta_bstar": 0.0018658,
        "meta_mean_motion_dot": 0.00223063,
        "meta_mean_motion_ddot": 0,
        "tle_line1": "1 65729U 98067XH  25338.59244779  .00223063  00000+0  18658-2 0  9992",
        "tle_line2": "2 65729  51.6239 177.3823 0006546 225.5504 134.4958 15.68739886 11885"
      },
      "geometry": {
        "type": "Point",
        "coordinates": [
          -176.35767792016736,
          14.09139685967514
        ]
      }
    },
    {
      "type": "Feature",
      "properties": {
        "norad_id": 65730,
        "name": "1998-067XJ",
        "group": "stations",
        "lat": -38.866584089888704,
        "lon": 124.91086622216409,
        "alt_km": 117.52331792754558,
        "timestamp": "2025-12-05T14:45:14.120748+00:00",
        "meta_object_name": "1998-067XJ",
        "meta_object_id": "1998-067XJ",
        "meta_epoch": "2025-12-02T19:46:01.269984",
        "meta_mean_motion": 16.23931094,
        "meta_eccentricity": 0.00101147,
        "meta_inclination": 51.6061,
        "meta_ra_of_asc_node": 180.4655,
        "meta_arg_of_pericenter": 256.3912,
        "meta_mean_anomaly": 103.5981,
        "meta_ephemeris_type": 0,
        "meta_classification_type": "U",
        "meta_norad_cat_id": 65730,
        "meta_element_set_no": 999,
        "meta_rev_at_epoch": 1168,
        "meta_bstar": 0.002285911,
        "meta_mean_motion_dot": 0.06330363,
        "meta_mean_motion_ddot": 1.1931217e-05,
        "tle_line1": "1 65730U 98067XJ  25336.82362581  .06330363  11931-4  22859-2 0  9996",
        "tle_line2": "2 65730  51.6061 180.4655 0010114 256.3912 103.5981 16.23931094 11687"
      },
      "geometry": {
        "type": "Point",
        "coordinates": [
          124.91086622216409,
          -38.866584089888704
        ]
      }
    },
    {
      "type": "Feature",
      "properties": {
        "norad_id": 65731,
        "name": "1998-067XK",
        "group": "stations",
        "lat": -4.469053149122255,
        "lon": -3.1198988838837716,
        "alt_km": 373.50581371932094,
        "timestamp": "2025-12-05T14:45:14.120758+00:00",
        "meta_object_name": "1998-067XK",
        "meta_object_id": "1998-067XK",
        "meta_epoch": "2025-12-03T20:33:14.862528",
        "meta_mean_motion": 15.63596152,
        "meta_eccentricity": 0.00059045,
        "meta_inclination": 51.628,
        "meta_ra_of_asc_node": 182.229,
        "meta_arg_of_pericenter": 193.4783,
        "meta_mean_anomaly": 166.6055,
        "meta_ephemeris_type": 0,
        "meta_classification_type": "U",
        "meta_norad_cat_id": 65731,
        "meta_element_set_no": 999,
        "meta_rev_at_epoch": 1175,
        "meta_bstar": 0.0013142835,
        "meta_mean_motion_dot": 0.00126041,
        "meta_mean_motion_ddot": 0,
        "tle_line1": "1 65731U 98067XK  25337.85642202  .00126041  00000+0  13143-2 0  9998",
        "tle_line2": "2 65731  51.6280 182.2290 0005904 193.4783 166.6055 15.63596152 11759"
      },
      "geometry": {
        "type": "Point",
        "coordinates": [
          -3.1198988838837716,
          -4.469053149122255
        ]
      }
    },
    {
      "type": "Feature",
      "properties": {
        "norad_id": 65732,
        "name": "RSP-03",
        "group": "stations",
        "lat": 51.595710789228775,
        "lon": -95.76715926213316,
        "alt_km": 363.6148705918713,
        "timestamp": "2025-12-05T14:45:14.120769+00:00",
        "meta_object_name": "RSP-03",
        "meta_object_id": "1998-067XL",
        "meta_epoch": "2025-12-04T13:52:03.031104",
        "meta_mean_motion": 15.66125442,
        "meta_eccentricity": 0.0006496,
        "meta_inclination": 51.625,
        "meta_ra_of_asc_node": 178.0408,
        "meta_arg_of_pericenter": 200.7712,
        "meta_mean_anomaly": 159.3021,
        "meta_ephemeris_type": 0,
        "meta_classification_type": "U",
        "meta_norad_cat_id": 65732,
        "meta_element_set_no": 999,
        "meta_rev_at_epoch": 1188,
        "meta_bstar": 0.0016859,
        "meta_mean_motion_dot": 0.00180215,
        "meta_mean_motion_ddot": 0,
        "tle_line1": "1 65732U 98067XL  25338.57781286  .00180215  00000+0  16859-2 0  9995",
        "tle_line2": "2 65732  51.6250 178.0408 0006496 200.7712 159.3021 15.66125442 11881"
      },
      "geometry": {
        "type": "Point",
        "coordinates": [
          -95.76715926213316,
          51.595710789228775
        ]
      }
    },
    {
      "type": "Feature",
      "properties": {
        "norad_id": 65733,
        "name": "GHS-01",
        "group": "stations",
        "lat": -34.57136729855575,
        "lon": 24.83475060713891,
        "alt_km": 354.50555192578486,
        "timestamp": "2025-12-05T14:45:14.120779+00:00",
        "meta_object_name": "GHS-01",
        "meta_object_id": "1998-067XM",
        "meta_epoch": "2025-12-03T22:05:54.332736",
        "meta_mean_motion": 15.70494881,
        "meta_eccentricity": 0.0007009,
        "meta_inclination": 51.6271,
        "meta_ra_of_asc_node": 180.4028,
        "meta_arg_of_pericenter": 220.9221,
        "meta_mean_anomaly": 139.1251,
        "meta_ephemeris_type": 0,
        "meta_classification_type": "U",
        "meta_norad_cat_id": 65733,
        "meta_element_set_no": 999,
        "meta_rev_at_epoch": 1179,
        "meta_bstar": 0.001848703,
        "meta_mean_motion_dot": 0.00238165,
        "meta_mean_motion_ddot": 0,
        "tle_line1": "1 65733U 98067XM  25337.92076774  .00238165  00000+0  18487-2 0  9990",
        "tle_line2": "2 65733  51.6271 180.4028 0007009 220.9221 139.1251 15.70494881 11792"
      },
      "geometry": {
        "type": "Point",
        "coordinates": [
          24.83475060713891,
          -34.57136729855575
        ]
      }
    },
    {
      "type": "Feature",
      "properties": {
        "norad_id": 65941,
        "name": "YOTSUBA-KULOVER",
        "group": "stations",
        "lat": 50.10942676486462,
        "lon": -75.68638880979377,
        "alt_km": 385.55065758355704,
        "timestamp": "2025-12-05T14:45:14.120789+00:00",
        "meta_object_name": "YOTSUBA-KULOVER",
        "meta_object_id": "1998-067XN",
        "meta_epoch": "2025-12-04T13:41:28.106016",
        "meta_mean_motion": 15.58052031,
        "meta_eccentricity": 0.00020554,
        "meta_inclination": 51.6276,
        "meta_ra_of_asc_node": 180.9943,
        "meta_arg_of_pericenter": 178.3938,
        "meta_mean_anomaly": 181.7061,
        "meta_ephemeris_type": 0,
        "meta_classification_type": "U",
        "meta_norad_cat_id": 65941,
        "meta_element_set_no": 999,
        "meta_rev_at_epoch": 858,
        "meta_bstar": 0.0013676634,
        "meta_mean_motion_dot": 0.00105594,
        "meta_mean_motion_ddot": 0,
        "tle_line1": "1 65941U 98067XN  25338.57046419  .00105594  00000+0  13677-2 0  9991",
        "tle_line2": "2 65941  51.6276 180.9943 0002055 178.3938 181.7061 15.58052031  8584"
      },
      "geometry": {
        "type": "Point",
        "coordinates": [
          -75.68638880979377,
          50.10942676486462
        ]
      }
    },
    {
      "type": "Feature",
      "properties": {
        "norad_id": 65942,
        "name": "BOTAN",
        "group": "stations",
        "lat": -7.1395716084716065,
        "lon": 169.5385950455297,
        "alt_km": 388.9711260126214,
        "timestamp": "2025-12-05T14:45:14.120799+00:00",
        "meta_object_name": "BOTAN",
        "meta_object_id": "1998-067XP",
        "meta_epoch": "2025-12-04T15:44:42.289728",
        "meta_mean_motion": 15.60784931,
        "meta_eccentricity": 0.00042645,
        "meta_inclination": 51.6268,
        "meta_ra_of_asc_node": 180.0664,
        "meta_arg_of_pericenter": 180.2775,
        "meta_mean_anomaly": 179.8217,
        "meta_ephemeris_type": 0,
        "meta_classification_type": "U",
        "meta_norad_cat_id": 65942,
        "meta_element_set_no": 999,
        "meta_rev_at_epoch": 860,
        "meta_bstar": 0.0017279415,
        "meta_mean_motion_dot": 0.00149041,
        "meta_mean_motion_ddot": 0,
        "tle_line1": "1 65942U 98067XP  25338.65604502  .00149041  00000+0  17279-2 0  9991",
        "tle_line2": "2 65942  51.6268 180.0664 0004264 180.2775 179.8217 15.60784931  8600"
      },
      "geometry": {
        "type": "Point",
        "coordinates": [
          169.5385950455297,
          -7.1395716084716065
        ]
      }
    }
  ]
}